IRIDIUM 106             
1 41917U 17003A   25211.53238616  .00000010  00000+0 -34519-5 0  9996
2 41917  86.3957 222.8875 0001822 100.8628 259.2773 14.34217508447100
IRIDIUM 103             
1 41918U 17003B   25211.51970162  .00000013  00000+0 -25049-5 0  9995
2 41918  86.3956 222.7935 0001862  75.9853 284.1550 14.34217472447124
IRIDIUM 109             
1 41919U 17003C   25211.59581291  .00000010  00000+0 -36665-5 0  9998
2 41919  86.3956 222.8159 0002230  86.0535 274.0916 14.34217544447106
IRIDIUM 102             
1 41920U 17003D   25211.56410039  .00000012  00000+0 -26128-5 0  9993
2 41920  86.3951 222.7595 0002411  89.9639 270.1833 14.34217554447188
IRIDIUM 105             
1 41921U 17003E   25211.46505999  .00000233  00000+0  76269-4 0  9997
2 41921  86.4004 191.2842 0002242  85.4637 274.6815 14.34216495449022
IRIDIUM 104             
1 41922U 17003F   25211.50701714  .00000017  00000+0 -11571-5 0  9993
2 41922  86.3957 222.8212 0002294  80.2262 279.9193 14.34217611447166
IRIDIUM 114             
1 41923U 17003G   25211.58312723  .00000082  00000+0  22124-4 0  9996
2 41923  86.3952 222.7737 0002049  86.2672 273.8758 14.34217993447154
IRIDIUM 108             
1 41924U 17003H   25211.47187965  .00000004  00000+0 -55271-5 0  9998
2 41924  86.4000 191.1806 0002165  92.1751 267.9693 14.34217642448995
